STARLINK-30256          
1 57522U 23115B   26068.20523495 -.00005369  00000+0 -19069-3 0  9997
2 57522  43.0014   4.6316 0001742 264.2228  95.8424 15.26726159142277
FLOCK 4G-29             
1 62642U 25009AK  26068.81464037  .00011147  00000+0  41831-3 0  9994
2 62642  97.4058 151.3683 0001366 288.0502  72.0588 15.27382318 63721
